[{"OBJECT_NAME":"BUFENG 1B","OBJECT_ID":"2019-032B","EPOCH":"2026-03-09T19:57:27.457920","MEAN_MOTION":15.25619535,"ECCENTRICITY":0.00242037,"INCLINATION":44.9701,"RA_OF_ASC_NODE":192.0248,"ARG_OF_PERICENTER":123.8847,"MEAN_ANOMALY":236.4342,"EPHEMERIS_TYPE":0,"CLASSIFICATION_TYPE":"U","NORAD_CAT_ID":44311,"ELEMENT_SET_NO":999,"REV_AT_EPOCH":37256,"BSTAR":0.00059375374,"MEAN_MOTION_DOT":0.00015236,"MEAN_MOTION_DDOT":0},{"OBJECT_NAME":"STARLINK-31457","OBJECT_ID":"2024-064S","EPOCH":"2026-03-09T06:58:39.895392","MEAN_MOTION":15.27578094,"ECCENTRICITY":0.00013934,"INCLINATION":43.0052,"RA_OF_ASC_NODE":51.5708,"ARG_OF_PERICENTER":275.0947,"MEAN_ANOMALY":84.9746,"EPHEMERIS_TYPE":0,"CLASSIFICATION_TYPE":"U","NORAD_CAT_ID":59414,"ELEMENT_SET_NO":999,"REV_AT_EPOCH":10924,"BSTAR":-1.7400657e-5,"MEAN_MOTION_DOT":-7.41e-6,"MEAN_MOTION_DDOT":0}]
